IRIDIUM 159             
1 43578U 18061K   24075.93771401  .00000136  00000+0  41494-4 0  9998
2 43578  86.3974  40.7358 0002139  85.4213 274.7227 14.34217252295380
IRIDIUM 180             
1 43922U 19002A   24075.23951872  .00000365  00000+0  12323-3 0  9994
2 43922  86.4013 337.9511 0002120  86.5798 273.5641 14.34216344270897
IRIDIUM 176             
1 43923U 19002B   24075.45803780  .00000485  00000+0  73105-4 0  9992
2 43923  86.6138 337.8881 0002074  91.5611 268.5844 14.72195247278050
IRIDIUM 168             
1 43924U 19002C   24076.27970938  .00000210  00000+0  67918-4 0  9995
2 43924  86.4013 337.5711 0002109  84.5206 275.6230 14.34217540271028
IRIDIUM 173             
1 43925U 19002D   24076.19724839  .00000287  00000+0  95391-4 0  9994
2 43925  86.4007 337.5284 0002044  83.5505 276.5923 14.34215850271005
IRIDIUM 169             
1 43926U 19002E   24076.33791591  .00000499  00000+0  15676-3 0  9992
2 43926  86.4314   9.0517 0005045  70.1487 290.0254 14.38605586271924
IRIDIUM 172             
1 43927U 19002F   24076.19091335  .00000124  00000+0  37342-4 0  9996
2 43927  86.4010 337.5362 0002151  83.0626 277.0815 14.34218082271002
IRIDIUM 175             
1 43928U 19002G   24075.65619362  .00001171  00000+0  18199-3 0  9994
2 43928  86.1508 316.2376 0003519  71.8650 288.2949 14.72203158278078
